ONEWEB-0635             
1 56076U 23043AG  26197.12199205 -.00000019  00000+0 -84076-4 0  9990
2 56076  87.8990 253.4293 0001807  98.1829 261.9506 13.15548024160232
ONEWEB-0636             
1 56077U 23043AH  26197.11406405 -.00000109  00000+0 -32439-3 0  9998
2 56077  87.8991 253.4364 0001915  96.7551 263.3797 13.15547994160210
ONEWEB-0637             
1 56078U 23043AJ  26197.10772873 -.00000105  00000+0 -31268-3 0  9998
2 56078  87.8982 253.4520 0001966  89.4613 270.6742 13.15548206160239
ONEWEB-0647             
1 56079U 23043AK  26197.10297250 -.00000068  00000+0 -21364-3 0  9994
2 56079  87.8983 253.4657 0001984 100.5436 259.5918 13.15549129160225
ONEWEB-0651             
1 56080U 23043AL  26197.17428340  .00000095  00000+0  21952-3 0  9990
2 56080  87.8984 253.4446 0001846  93.0853 267.0488 13.15548335161438
ONEWEB-0718             
1 56081U 23043AM  26197.09346492  .00000028  00000+0  40032-4 0  9996
2 56081  87.8988 253.4412 0002514  91.8839 268.2580 13.15549756160230
ONEWEB-0561             
1 56710U 23068A   26197.13675983  .00000055  00000+0  10337-3 0  9991
2 56710  87.9185 268.6747 0001786 104.1492 255.9840 13.20770245153320
ONEWEB-0668             
1 56711U 23068B   26197.15576911 -.00000006  00000+0 -48446-4 0  9996
2 56711  87.9081 223.0179 0002301  80.5088 279.6302 13.16595217155598
ONEWEB-0676             
1 56712U 23068C   26197.08769566  .00000020  00000+0  19932-4 0  9991
2 56712  87.9081 223.0378 0001749  93.3283 266.8048 13.16594850155502
ONEWEB-0677             
1 56713U 23068D   26196.74620507  .00000012  00000+0 -15236-5 0  9991
2 56713  87.9185 268.7434 0001860  89.4868 270.6478 13.20772128153572
ONEWEB-0678             
1 56714U 23068E   26197.13783953  .00000220  00000+0  54958-3 0  9993
2 56714  87.8991 253.4273 0002062 105.2769 254.8590 13.15548541153091
ONEWEB-0679             
1 56715U 23068F   26197.12252333  .00000029  00000+0  42736-4 0  9995
2 56715  87.9078 223.0224 0001949  77.5074 282.6275 13.16593881155539
ONEWEB-0680             
1 56716U 23068G   26197.08761233  .00000061  00000+0  11733-3 0  9993
2 56716  87.9241 238.2215 0002237  80.5486 279.5901 13.21825988154916
ONEWEB-0681             
1 56717U 23068H   26197.14395925  .00000081  00000+0  16412-3 0  9993
2 56717  87.9236 238.2105 0001093  94.3158 265.8101 13.21827408154916
ONEWEB-0682             
1 56718U 23068J   26197.16160861  .00000182  00000+0  44973-3 0  9990
2 56718  87.8993 253.4223 0002175  82.3908 277.7470 13.15548874153266
ONEWEB-0683             
1 56719U 23068K   26197.10931322 -.00000075  00000+0 -23460-3 0  9994
2 56719  87.8993 253.4336 0002270  93.1329 267.0061 13.15548691153226
ONEWEB-0684             
1 56720U 23068L   26197.11723250 -.00000081  00000+0 -25050-3 0  9990
2 56720  87.8990 253.4214 0003060 118.5014 241.6425 13.15549425153050
ONEWEB-0686             
1 56721U 23068M   26197.08294644  .00000055  00000+0  11091-3 0  9996
2 56721  87.9073 223.0506 0002411  92.2173 267.9234 13.16594451155516
ONEWEB-0694             
1 56722U 23068N   26197.08927978 -.00000038  00000+0 -13198-3 0  9993
2 56722  87.9093 223.0200 0002273  81.9086 278.2303 13.16593571155574
ONEWEB-0696             
1 56723U 23068P   26197.15050547  .00000223  00000+0  55838-3 0  9992
2 56723  87.8983 253.4506 0002113 112.7436 247.3918 13.15549824153177
ONEWEB-0703             
1 56724U 23068Q   26197.16001689  .00000198  00000+0  49308-3 0  9993
2 56724  87.8987 253.4300 0001785 124.4276 235.7023 13.15548030153064
ONEWEB-0721             
1 56725U 23068R   26197.11733072  .00000020  00000+0  13811-4 0  9992
2 56725  86.6742  76.2803 0001747  79.6765 280.4565 13.22471441161765
ONEWEB-0015             
1 61594U 24188A   26196.99704573 -.00000297  00000+0 -87360-3 0  9992
2 61594  87.8882  15.3554 0001498  75.5499 284.5795 13.11418348 88237
ONEWEB-0687             
1 61595U 24188B   26197.01058566  .00000005  00000+0 -20837-4 0  9994
2 61595  87.9141   0.1407 0001945  78.6311 281.5039 13.17650419 89692
ONEWEB-0688             
1 61596U 24188C   26196.96332277  .00000001  00000+0 -30191-4 0  9992
2 61596  87.9141   0.1501 0001129  52.8262 307.2972 13.17650809 89685
ONEWEB-0689             
1 61597U 24188D   26197.03096355  .00000425  00000+0  11635-2 0  9995
2 61597  87.8896  15.3103 0002092  85.6001 274.5365 13.11415549 88239
ONEWEB-0690             
1 61598U 24188E   26197.04113786  .00000098  00000+0  23965-3 0  9991
2 61598  87.8892  15.3189 0001608 110.9221 249.2079 13.11414793 88419
ONEWEB-0691             
1 61599U 24188F   26197.03605581  .00000219  00000+0  58254-3 0  9994
2 61599  87.8903  15.2313 0001683  80.6732 279.4586 13.11414053 88264
ONEWEB-0692             
1 61600U 24188G   26197.05638122 -.00000421  00000+0 -12246-2 0  9993
2 61600  87.8882  15.3349 0002635  95.8615 264.2813 13.11417342 88257
ONEWEB-0693             
1 61601U 24188H   26196.97514981  .00000038  00000+0  64960-4 0  9994
2 61601  87.9138   0.1664 0001447 117.8895 242.2383 13.17650020 89673
ONEWEB-0695             
1 61602U 24188J   26197.03266450  .00000444  00000+0  12175-2 0  9998
2 61602  87.8882  15.3319 0002352  87.7262 272.4135 13.11415402 88242
