OBJECT_NAME,OBJECT_ID,EPOCH,MEAN_MOTION,ECCENTRICITY,INCLINATION,RA_OF_ASC_NODE,ARG_OF_PERICENTER,MEAN_ANOMALY,EPHEMERIS_TYPE,CLASSIFICATION_TYPE,NORAD_CAT_ID,ELEMENT_SET_NO,REV_AT_EPOCH,BSTAR,MEAN_MOTION_DOT,MEAN_MOTION_DDOT
ONEWEB-0635,2023-043AG,2026-07-16T02:55:40.113120,13.15548024,.0001807,87.8990,253.4293,98.1829,261.9506,0,U,56076,999,16023,-.84076E-4,-.19E-6,0
ONEWEB-0636,2023-043AH,2026-07-16T02:44:15.133920,13.15547994,.0001915,87.8991,253.4364,96.7551,263.3797,0,U,56077,999,16021,-.32439E-3,-.109E-5,0
ONEWEB-0637,2023-043AJ,2026-07-16T02:35:07.762272,13.15548206,.0001966,87.8982,253.4520,89.4613,270.6742,0,U,56078,999,16023,-.31268E-3,-.105E-5,0
ONEWEB-0647,2023-043AK,2026-07-16T02:28:16.824000,13.15549129,.0001984,87.8983,253.4657,100.5436,259.5918,0,U,56079,999,16022,-.21364E-3,-.68E-6,0
ONEWEB-0651,2023-043AL,2026-07-16T04:10:58.085760,13.15548335,.0001846,87.8984,253.4446,93.0853,267.0488,0,U,56080,999,16143,.21952E-3,.95E-6,0
ONEWEB-0718,2023-043AM,2026-07-16T02:14:35.369088,13.15549756,.0002514,87.8988,253.4412,91.8839,268.2580,0,U,56081,999,16023,.40032E-4,.28E-6,0
ONEWEB-0561,2023-068A,2026-07-16T03:16:56.049312,13.20770245,.0001786,87.9185,268.6747,104.1492,255.9840,0,U,56710,999,15332,.10337E-3,.55E-6,0
ONEWEB-0668,2023-068B,2026-07-16T03:44:18.451104,13.16595217,.0002301,87.9081,223.0179,80.5088,279.6302,0,U,56711,999,15559,-.48446E-4,-.6E-7,0
ONEWEB-0676,2023-068C,2026-07-16T02:06:16.905024,13.16594850,.0001749,87.9081,223.0378,93.3283,266.8048,0,U,56712,999,15550,.19932E-4,.2E-6,0
ONEWEB-0677,2023-068D,2026-07-15T17:54:32.118048,13.20772128,.00018609,87.9185,268.7434,89.4868,270.6478,0,U,56713,999,15357,-.1523616E-5,.12E-6,0
ONEWEB-0678,2023-068E,2026-07-16T03:18:29.335392,13.15548541,.0002062,87.8991,253.4273,105.2769,254.8590,0,U,56714,999,15309,.54958E-3,.22E-5,0
ONEWEB-0679,2023-068F,2026-07-16T02:56:26.015712,13.16593881,.0001949,87.9078,223.0224,77.5074,282.6275,0,U,56715,999,15553,.42736E-4,.29E-6,0
ONEWEB-0680,2023-068G,2026-07-16T02:06:09.705312,13.21825988,.0002237,87.9241,238.2215,80.5486,279.5901,0,U,56716,999,15491,.11733E-3,.61E-6,0
ONEWEB-0681,2023-068H,2026-07-16T03:27:18.079200,13.21827408,.0001093,87.9236,238.2105,94.3158,265.8101,0,U,56717,999,15491,.16412E-3,.81E-6,0
ONEWEB-0682,2023-068J,2026-07-16T03:52:42.983904,13.15548874,.0002175,87.8993,253.4223,82.3908,277.7470,0,U,56718,999,15326,.44973E-3,.182E-5,0
ONEWEB-0683,2023-068K,2026-07-16T02:37:24.662208,13.15548691,.000227,87.8993,253.4336,93.1329,267.0061,0,U,56719,999,15322,-.2346E-3,-.75E-6,0
ONEWEB-0684,2023-068L,2026-07-16T02:48:48.888000,13.15549425,.000306,87.8990,253.4214,118.5014,241.6425,0,U,56720,999,15305,-.2505E-3,-.81E-6,0
ONEWEB-0686,2023-068M,2026-07-16T01:59:26.572416,13.16594451,.0002411,87.9073,223.0506,92.2173,267.9234,0,U,56721,999,15551,.11091E-3,.55E-6,0
ONEWEB-0694,2023-068N,2026-07-16T02:08:33.772992,13.16593571,.0002273,87.9093,223.0200,81.9086,278.2303,0,U,56722,999,15557,-.13198E-3,-.38E-6,0
ONEWEB-0696,2023-068P,2026-07-16T03:36:43.672608,13.15549824,.0002113,87.8983,253.4506,112.7436,247.3918,0,U,56723,999,15317,.55838E-3,.223E-5,0
ONEWEB-0703,2023-068Q,2026-07-16T03:50:25.459296,13.15548030,.0001785,87.8987,253.4300,124.4276,235.7023,0,U,56724,999,15306,.49308E-3,.198E-5,0
ONEWEB-0721,2023-068R,2026-07-16T02:48:57.374208,13.22471441,.0001747,86.6742,76.2803,79.6765,280.4565,0,U,56725,999,16176,.13811E-4,.2E-6,0
ONEWEB-0015,2024-188A,2026-07-15T23:55:44.751072,13.11418348,.0001498,87.8882,15.3554,75.5499,284.5795,0,U,61594,999,8823,-.8736E-3,-.297E-5,0
ONEWEB-0687,2024-188B,2026-07-16T00:15:14.601024,13.17650419,.0001945,87.9141,0.1407,78.6311,281.5039,0,U,61595,999,8969,-.20837E-4,.5E-7,0
ONEWEB-0688,2024-188C,2026-07-15T23:07:11.087328,13.17650809,.0001129,87.9141,0.1501,52.8262,307.2972,0,U,61596,999,8968,-.30191E-4,.1E-7,0
ONEWEB-0689,2024-188D,2026-07-16T00:44:35.250720,13.11415549,.0002092,87.8896,15.3103,85.6001,274.5365,0,U,61597,999,8823,.11635E-2,.425E-5,0
ONEWEB-0690,2024-188E,2026-07-16T00:59:14.311104,13.11414793,.0001608,87.8892,15.3189,110.9221,249.2079,0,U,61598,999,8841,.23965E-3,.98E-6,0
ONEWEB-0691,2024-188F,2026-07-16T00:51:55.221984,13.11414053,.0001683,87.8903,15.2313,80.6732,279.4586,0,U,61599,999,8826,.58254E-3,.219E-5,0
ONEWEB-0692,2024-188G,2026-07-16T01:21:11.337408,13.11417342,.0002635,87.8882,15.3349,95.8615,264.2813,0,U,61600,999,8825,-.12246E-2,-.421E-5,0
ONEWEB-0693,2024-188H,2026-07-15T23:24:12.943584,13.17650020,.0001447,87.9138,0.1664,117.8895,242.2383,0,U,61601,999,8967,.6496E-4,.38E-6,0
ONEWEB-0695,2024-188J,2026-07-16T00:47:02.212800,13.11415402,.0002352,87.8882,15.3319,87.7262,272.4135,0,U,61602,999,8824,.12175E-2,.444E-5,0
